{"type": "FeatureCollection", "features": [ {"type": "Feature", "properties": {"norad_id": 29782, "name": "FENGYUN 1C DEB", "group": "fengyun-1c-debris", "lat": -24.300530449568456, "lon": 43.59466914452053, "alt_km": 884.8815412281119, "timestamp": "2025-12-11T20:41:15.352266+00:00", "meta": {"OBJECT_NAME": "FENGYUN 1C DEB", "OBJECT_ID": "1999-025BY", "EPOCH": "2025-12-11T04:07:14.281248", "MEAN_MOTION": 14.11648545, "ECCENTRICITY": 0.0055415, "INCLINATION": 99.0998, "RA_OF_ASC_NODE": 38.7449, "ARG_OF_PERICENTER": 207.2778, "MEAN_ANOMALY": 221.6375, "EPHEMERIS_TYPE": 0, "CLASSIFICATION_TYPE": "U", "NORAD_CAT_ID": 29782, "ELEMENT_SET_NO": 999, "REV_AT_EPOCH": 96649, "BSTAR": 0.0019468927, "MEAN_MOTION_DOT": 3.547e-05, "MEAN_MOTION_DDOT": 0}, "tle": {"line1": "1 29782U 99025BY  25345.17169307  .00003547  00000+0  19469-2 0  9995", "line2": "2 29782  99.0998  38.7449 0055415 207.2778 221.6375 14.11648545966491"}}, "geometry": {"type": "Point", "coordinates": [43.59466914452053, -24.300530449568456]}}, {"type": "Feature", "properties": {"norad_id": 29784, "name": "FENGYUN 1C DEB", "group": "fengyun-1c-debris", "lat": 66.8468185131524, "lon": -116.97714417524863, "alt_km": 809.6620302400706, "timestamp": "2025-12-11T20:41:15.352277+00:00", "meta": {"OBJECT_NAME": "FENGYUN 1C DEB", "OBJECT_ID": "1999-025CA", "EPOCH": "2025-12-11T07:28:43.321728", "MEAN_MOTION": 14.30578618, "ECCENTRICITY": 0.00594789, "INCLINATION": 98.9449, "RA_OF_ASC_NODE": 264.0682, "ARG_OF_PERICENTER": 301.6361, "MEAN_ANOMALY": 173.571, "EPHEMERIS_TYPE": 0, "CLASSIFICATION_TYPE": "U", "NORAD_CAT_ID": 29784, "ELEMENT_SET_NO": 999, "REV_AT_EPOCH": 98339, "BSTAR": 0.001004605, "MEAN_MOTION_DOT": 2.626e-05, "MEAN_MOTION_DDOT": 0}, "tle": {"line1": "1 29784U 99025CA  25345.31161252  .00002626  00000+0  10046-2 0  9993", "line2": "2 29784  98.9449 264.0682 0059478 301.6361 173.5710 14.30578618983395"}}, "geometry": {"type": "Point", "coordinates": [-116.97714417524863, 66.8468185131524]}}, {"type": "Feature", "properties": {"norad_id": 29786, "name": "FENGYUN 1C DEB", "group": "fengyun-1c-debris", "lat": 73.4594069339783, "lon": -28.07445218542747, "alt_km": 891.308726825554, "timestamp": "2025-12-11T20:41:15.352287+00:00", "meta": {"OBJECT_NAME": "FENGYUN 1C DEB", "OBJECT_ID": "1999-025CC", "EPOCH": "2025-12-11T00:00:59.669568", "MEAN_MOTION": 14.09082555, "ECCENTRICITY": 0.00770482, "INCLINATION": 98.7359, "RA_OF_ASC_NODE": 2.2711, "ARG_OF_PERICENTER": 308.0303, "MEAN_ANOMALY": 80.5797, "EPHEMERIS_TYPE": 0, "CLASSIFICATION_TYPE": "U", "NORAD_CAT_ID": 29786, "ELEMENT_SET_NO": 999, "REV_AT_EPOCH": 97136, "BSTAR": 0.00027079579, "MEAN_MOTION_DOT": 4.39e-06, "MEAN_MOTION_DDOT": 0}, "tle": {"line1": "1 29786U 99025CC  25345.00069062  .00000439  00000+0  27080-3 0  9994", "line2": "2 29786  98.7359   2.2711 0077048 308.0303  80.5797 14.09082555971362"}}, "geometry": {"type": "Point", "coordinates": [-28.07445218542747, 73.4594069339783]}}, {"type": "Feature", "properties": {"norad_id": 29788, "name": "FENGYUN 1C DEB", "group": "fengyun-1c-debris", "lat": -42.814652569916866, "lon": 65.71909986178343, "alt_km": 829.6023449770828, "timestamp": "2025-12-11T20:41:15.352297+00:00", "meta": {"OBJECT_NAME": "FENGYUN 1C DEB", "OBJECT_ID": "1999-025CE", "EPOCH": "2025-12-11T10:50:23.615808", "MEAN_MOTION": 14.25958877, "ECCENTRICITY": 0.00430739, "INCLINATION": 98.7837, "RA_OF_ASC_NODE": 57.072, "ARG_OF_PERICENTER": 192.6095, "MEAN_ANOMALY": 178.4527, "EPHEMERIS_TYPE": 0, "CLASSIFICATION_TYPE": "U", "NORAD_CAT_ID": 29788, "ELEMENT_SET_NO": 999, "REV_AT_EPOCH": 97337, "BSTAR": 0.002988844, "MEAN_MOTION_DOT": 7.158e-05, "MEAN_MOTION_DDOT": 0}, "tle": {"line1": "1 29788U 99025CE  25345.45166222  .00007158  00000+0  29888-2 0  9993", "line2": "2 29788  98.7837  57.0720 0043073 192.6095 178.4527 14.25958877973377"}}, "geometry": {"type": "Point", "coordinates": [65.71909986178343, -42.814652569916866]}}, {"type": "Feature", "properties": {"norad_id": 29789, "name": "FENGYUN 1C DEB", "group": "fengyun-1c-debris", "lat": -28.841417317735438, "lon": 173.95579636109412, "alt_km": 915.5238925969097, "timestamp": "2025-12-11T20:41:15.352307+00:00", "meta": {"OBJECT_NAME": "FENGYUN 1C DEB", "OBJECT_ID": "1999-025CF", "EPOCH": "2025-12-11T10:30:39.146976", "MEAN_MOTION": 13.54236274, "ECCENTRICITY": 0.02983286, "INCLINATION": 99.4511, "RA_OF_ASC_NODE": 168.287, "ARG_OF_PERICENTER": 282.0749, "MEAN_ANOMALY": 139.9948, "EPHEMERIS_TYPE": 0, "CLASSIFICATION_TYPE": "U", "NORAD_CAT_ID": 29789, "ELEMENT_SET_NO": 999, "REV_AT_EPOCH": 92970, "BSTAR": 0.0020900748, "MEAN_MOTION_DOT": 1.843e-05, "MEAN_MOTION_DDOT": 0}, "tle": {"line1": "1 29789U 99025CF  25345.43795309  .00001843  00000+0  20901-2 0  9998", "line2": "2 29789  99.4511 168.2870 0298328 282.0749 139.9948 13.54236274929709"}}, "geometry": {"type": "Point", "coordinates": [173.95579636109412, -28.841417317735438]}}, {"type": "Feature", "properties": {"norad_id": 29790, "name": "FENGYUN 1C DEB", "group": "fengyun-1c-debris", "lat": -31.209445448935405, "lon": 154.23709779251416, "alt_km": 743.8181158538728, "timestamp": "2025-12-11T20:41:15.352317+00:00", "meta": {"OBJECT_NAME": "FENGYUN 1C DEB", "OBJECT_ID": "1999-025CG", "EPOCH": "2025-12-11T11:19:19.295904", "MEAN_MOTION": 14.32266146, "ECCENTRICITY": 0.00764403, "INCLINATION": 99.1473, "RA_OF_ASC_NODE": 339.4277, "ARG_OF_PERICENTER": 180.2059, "MEAN_ANOMALY": 179.9104, "EPHEMERIS_TYPE": 0, "CLASSIFICATION_TYPE": "U", "NORAD_CAT_ID": 29790, "ELEMENT_SET_NO": 999, "REV_AT_EPOCH": 98507, "BSTAR": 0.00044142862, "MEAN_MOTION_DOT": 1.181e-05, "MEAN_MOTION_DDOT": 0}, "tle": {"line1": "1 29790U 99025CG  25345.47175111  .00001181  00000+0  44143-3 0  9997", "line2": "2 29790  99.1473 339.4277 0076440 180.2059 179.9104 14.32266146985078"}}, "geometry": {"type": "Point", "coordinates": [154.23709779251416, -31.209445448935405]}}, {"type": "Feature", "properties": {"norad_id": 29791, "name": "FENGYUN 1C DEB", "group": "fengyun-1c-debris", "lat": 57.737476973221796, "lon": -28.27230906924109, "alt_km": 663.994355855707, "timestamp": "2025-12-11T20:41:15.352327+00:00", "meta": {"OBJECT_NAME": "FENGYUN 1C DEB", "OBJECT_ID": "1999-025CH", "EPOCH": "2025-12-11T12:44:35.134080", "MEAN_MOTION": 14.58224326, "ECCENTRICITY": 0.00415904, "INCLINATION": 99.0372, "RA_OF_ASC_NODE": 345.9714, "ARG_OF_PERICENTER": 65.602, "MEAN_ANOMALY": 56.6681, "EPHEMERIS_TYPE": 0, "CLASSIFICATION_TYPE": "U", "NORAD_CAT_ID": 29791, "ELEMENT_SET_NO": 999, "REV_AT_EPOCH": 98828, "BSTAR": 0.0030372674, "MEAN_MOTION_DOT": 0.00014162, "MEAN_MOTION_DDOT": 0}, "tle": {"line1": "1 29791U 99025CH  25345.53096220  .00014162  00000+0  30373-2 0  9990", "line2": "2 29791  99.0372 345.9714 0041590  65.6020  56.6681 14.58224326988285"}}, "geometry": {"type": "Point", "coordinates": [-28.27230906924109, 57.737476973221796]}}, {"type": "Feature", "properties": {"norad_id": 29792, "name": "FENGYUN 1C DEB", "group": "fengyun-1c-debris", "lat": -34.899495460983374, "lon": -149.73123278509811, "alt_km": 882.670021725502, "timestamp": "2025-12-11T20:41:15.352337+00:00", "meta": {"OBJECT_NAME": "FENGYUN 1C DEB", "OBJECT_ID": "1999-025CJ", "EPOCH": "2025-12-11T02:42:23.101632", "MEAN_MOTION": 14.1514092, "ECCENTRICITY": 0.00481152, "INCLINATION": 98.7573, "RA_OF_ASC_NODE": 35.7063, "ARG_OF_PERICENTER": 41.3069, "MEAN_ANOMALY": 319.1728, "EPHEMERIS_TYPE": 0, "CLASSIFICATION_TYPE": "U", "NORAD_CAT_ID": 29792, "ELEMENT_SET_NO": 999, "REV_AT_EPOCH": 96916, "BSTAR": 0.0017209612, "MEAN_MOTION_DOT": 3.335e-05, "MEAN_MOTION_DDOT": 0}, "tle": {"line1": "1 29792U 99025CJ  25345.11276738  .00003335  00000+0  17210-2 0  9994", "line2": "2 29792  98.7573  35.7063 0048115  41.3069 319.1728 14.15140920969165"}}, "geometry": {"type": "Point", "coordinates": [-149.73123278509811, -34.899495460983374]}}, {"type": "Feature", "properties": {"norad_id": 29793, "name": "FENGYUN 1C DEB", "group": "fengyun-1c-debris", "lat": -56.555463380208586, "lon": -28.14335014285627, "alt_km": 919.7224025360629, "timestamp": "2025-12-11T20:41:15.352347+00:00", "meta": {"OBJECT_NAME": "FENGYUN 1C DEB", "OBJECT_ID": "1999-025CK", "EPOCH": "2025-12-11T11:06:50.956992", "MEAN_MOTION": 14.01072148, "ECCENTRICITY": 0.01437261, "INCLINATION": 98.3547, "RA_OF_ASC_NODE": 164.3466, "ARG_OF_PERICENTER": 341.854, "MEAN_ANOMALY": 46.3451, "EPHEMERIS_TYPE": 0, "CLASSIFICATION_TYPE": "U", "NORAD_CAT_ID": 29793, "ELEMENT_SET_NO": 999, "REV_AT_EPOCH": 96131, "BSTAR": 0.0015314699, "MEAN_MOTION_DOT": 2.474e-05, "MEAN_MOTION_DDOT": 0}, "tle": {"line1": "1 29793U 99025CK  25345.46308978  .00002474  00000+0  15315-2 0  9992", "line2": "2 29793  98.3547 164.3466 0143726 341.8540  46.3451 14.01072148961317"}}, "geometry": {"type": "Point", "coordinates": [-28.14335014285627, -56.555463380208586]}}, {"type": "Feature", "properties": {"norad_id": 29794, "name": "FENGYUN 1C DEB", "group": "fengyun-1c-debris", "lat": 14.935562561387682, "lon": -33.219694956088524, "alt_km": 922.2098960104913, "timestamp": "2025-12-11T20:41:15.352357+00:00", "meta": {"OBJECT_NAME": "FENGYUN 1C DEB", "OBJECT_ID": "1999-025CL", "EPOCH": "2025-12-11T09:56:41.549856", "MEAN_MOTION": 14.0899359, "ECCENTRICITY": 0.01571591, "INCLINATION": 98.1997, "RA_OF_ASC_NODE": 144.1685, "ARG_OF_PERICENTER": 44.3192, "MEAN_ANOMALY": 9.7568, "EPHEMERIS_TYPE": 0, "CLASSIFICATION_TYPE": "U", "NORAD_CAT_ID": 29794, "ELEMENT_SET_NO": 999, "REV_AT_EPOCH": 96829, "BSTAR": 0.0007610408, "MEAN_MOTION_DOT": 1.439e-05, "MEAN_MOTION_DDOT": 0}, "tle": {"line1": "1 29794U 99025CL  25345.41436979  .00001439  00000+0  76104-3 0  9995", "line2": "2 29794  98.1997 144.1685 0157159  44.3192   9.7568 14.08993590968293"}}, "geometry": {"type": "Point", "coordinates": [-33.219694956088524, 14.935562561387682]}}]}